{"type":"FeatureCollection","features":[{"type":"Feature","properties":{"ac":"TH9001","a":"เมืองสงขลา","pc":"TH90","p":"สงขลา"},"geometry":{"type":"Polygon","coordinates":[[[100.6304,7.0187],[100.6004,7.0251],[100.6057,7.0479],[100.564,7.0933],[100.5549,7.1509],[100.5042,7.1581],[100.4622,7.187],[100.5579,7.1817],[100.5727,7.1688],[100.5818,7.1824],[100.5754,7.2232],[100.6192,7.1815],[100.6738,7.1015],[100.6658,7.084],[100.6672,7.0524],[100.6304,7.0187]]]}},{"type":"Feature","properties":{"ac":"TH9002","a":"สทิงพระ","pc":"TH90","p":"สงขลา"},"geometry":{"type":"Polygon","coordinates":[[[100.4061,7.3618],[100.3826,7.425],[100.3877,7.4971],[100.3557,7.5278],[100.3597,7.5843],[100.368,7.6141],[100.4079,7.622],[100.4409,7.4921],[100.4811,7.3763],[100.4477,7.3665],[100.4456,7.3726],[100.4061,7.3618]]]}},{"type":"Feature","properties":{"ac":"TH9003","a":"จะนะ","pc":"TH90","p":"สงขลา"},"geometry":{"type":"Polygon","coordinates":[[[100.6819,6.7872],[100.5962,6.7974],[100.5892,6.8186],[100.5921,6.8871],[100.6201,6.9258],[100.6092,6.9664],[100.6304,7.0187],[100.6672,7.0524],[100.6658,7.084],[100.6738,7.1015],[100.7405,7.0119],[100.7753,6.9767],[100.8255,6.9517],[100.7968,6.8708],[100.8225,6.8149],[100.8013,6.7678],[100.7987,6.7493],[100.7466,6.7568],[100.7166,6.7833],[100.6829,6.7777],[100.6819,6.7872]]]}},{"type":"Feature","properties":{"ac":"TH9004","a":"นาทวี","pc":"TH90","p":"สงขลา"},"geometry":{"type":"Polygon","coordinates":[[[100.7089,6.4705],[100.6523,6.4429],[100.6082,6.4723],[100.6076,6.5083],[100.5969,6.5466],[100.5715,6.57],[100.5708,6.6232],[100.5647,6.6762],[100.545,6.7248],[100.5818,6.7874],[100.5962,6.7974],[100.6819,6.7872],[100.6829,6.7777],[100.7166,6.7833],[100.7466,6.7568],[100.7987,6.7493],[100.8313,6.7158],[100.8055,6.6547],[100.8109,6.6471],[100.766,6.6154],[100.7803,6.57],[100.7487,6.5271],[100.7402,6.5073],[100.7089,6.4705]]]}},{"type":"Feature","properties":{"ac":"TH9005","a":"เทพา","pc":"TH90","p":"สงขลา"},"geometry":{"type":"Polygon","coordinates":[[[100.8988,6.6359],[100.8666,6.6598],[100.8109,6.6471],[100.8055,6.6547],[100.8313,6.7158],[100.7987,6.7493],[100.8013,6.7678],[100.8225,6.8149],[100.7968,6.8708],[100.8255,6.9517],[100.8499,6.9614],[100.9304,6.8927],[100.9692,6.8697],[101.0661,6.8571],[101.0544,6.8015],[101.0286,6.7786],[101.0176,6.7249],[101.0606,6.7057],[101.057,6.6775],[101.0048,6.6938],[100.9721,6.7003],[100.957,6.7081],[100.9548,6.674],[100.8988,6.6359]]]}},{"type":"Feature","properties":{"ac":"TH9006","a":"สะบ้าย้อย","pc":"TH90","p":"สงขลา"},"geometry":{"type":"Polygon","coordinates":[[[100.9121,6.3034],[100.841,6.3004],[100.8199,6.4182],[100.8103,6.4447],[100.7527,6.4585],[100.7402,6.5073],[100.7487,6.5271],[100.7803,6.57],[100.766,6.6154],[100.8109,6.6471],[100.8666,6.6598],[100.8988,6.6359],[100.9548,6.674],[100.957,6.7081],[100.9721,6.7003],[101.0048,6.6938],[101.057,6.6775],[101.0622,6.6554],[101.1036,6.628],[101.0895,6.6091],[101.0638,6.5426],[101.0347,6.4857],[100.9758,6.4804],[100.9243,6.4275],[100.9288,6.3309],[100.9121,6.3034]]]}},{"type":"Feature","properties":{"ac":"TH9007","a":"ระโนด","pc":"TH90","p":"สงขลา"},"geometry":{"type":"Polygon","coordinates":[[[100.2201,7.6953],[100.2175,7.7217],[100.2007,7.7777],[100.1775,7.8765],[100.2355,7.883],[100.2606,7.9027],[100.266,7.9147],[100.2887,7.9149],[100.3213,7.9368],[100.3366,7.9318],[100.3676,7.7859],[100.4079,7.622],[100.368,7.6141],[100.3431,7.7176],[100.2201,7.6953]]]}},{"type":"Feature","properties":{"ac":"TH9008","a":"กระแสสินธุ์","pc":"TH90","p":"สงขลา"},"geometry":{"type":"Polygon","coordinates":[[[100.2384,7.5367],[100.2201,7.6953],[100.3431,7.7176],[100.368,7.6141],[100.3597,7.5843],[100.3557,7.5278],[100.2731,7.4966],[100.2384,7.5367]]]}},{"type":"Feature","properties":{"ac":"TH9009","a":"รัตภูมิ","pc":"TH90","p":"สงขลา"},"geometry":{"type":"Polygon","coordinates":[[[100.2072,6.8958],[100.1217,6.9239],[100.079,6.9632],[100.0572,7.1076],[100.1143,7.1666],[100.1563,7.1487],[100.1746,7.1748],[100.2207,7.1921],[100.3046,7.2086],[100.3167,7.2313],[100.3401,7.209],[100.3248,7.1408],[100.349,7.1286],[100.332,7.0878],[100.303,7.0394],[100.2104,6.989],[100.1909,6.9483],[100.2072,6.8958]]]}},{"type":"Feature","properties":{"ac":"TH9010","a":"สะเดา","pc":"TH90","p":"สงขลา"},"geometry":{"type":"Polygon","coordinates":[[[100.6076,6.5083],[100.6082,6.4723],[100.5614,6.4965],[100.5191,6.4892],[100.4599,6.5313],[100.4236,6.5175],[100.3597,6.5482],[100.3058,6.6111],[100.3215,6.6323],[100.2896,6.7106],[100.2403,6.6921],[100.2044,6.7267],[100.2128,6.7688],[100.1916,6.8089],[100.2059,6.8418],[100.2195,6.8235],[100.2691,6.781],[100.3549,6.7829],[100.3857,6.8284],[100.4324,6.8397],[100.4503,6.8356],[100.4683,6.8157],[100.5818,6.7874],[100.545,6.7248],[100.5647,6.6762],[100.5708,6.6232],[100.5715,6.57],[100.5969,6.5466],[100.6076,6.5083]]]}},{"type":"Feature","properties":{"ac":"TH9011","a":"หาดใหญ่","pc":"TH90","p":"สงขลา"},"geometry":{"type":"Polygon","coordinates":[[[100.2476,6.8484],[100.2107,6.8461],[100.2072,6.8958],[100.1909,6.9483],[100.2104,6.989],[100.303,7.0394],[100.4014,7.0099],[100.3954,6.9925],[100.452,7.0201],[100.4526,7.028],[100.4356,7.061],[100.4511,7.0599],[100.4777,7.0835],[100.4572,7.117],[100.4622,7.187],[100.5042,7.1581],[100.5549,7.1509],[100.564,7.0933],[100.6057,7.0479],[100.6004,7.0251],[100.5581,7.0096],[100.5386,6.9867],[100.5401,6.973],[100.5031,6.9675],[100.5195,6.9452],[100.5359,6.8787],[100.5921,6.8871],[100.5892,6.8186],[100.5962,6.7974],[100.5818,6.7874],[100.4683,6.8157],[100.4503,6.8356],[100.4601,6.8788],[100.4408,6.9383],[100.4156,6.9342],[100.4022,6.9405],[100.3427,6.9273],[100.2735,6.886],[100.2476,6.8484]]]}},{"type":"Feature","properties":{"ac":"TH9012","a":"นาหม่อม","pc":"TH90","p":"สงขลา"},"geometry":{"type":"Polygon","coordinates":[[[100.5195,6.9452],[100.5031,6.9675],[100.5401,6.973],[100.5386,6.9867],[100.5581,7.0096],[100.6004,7.0251],[100.6304,7.0187],[100.6092,6.9664],[100.6201,6.9258],[100.5921,6.8871],[100.5359,6.8787],[100.5195,6.9452]]]}},{"type":"Feature","properties":{"ac":"TH9013","a":"ควนเนียง","pc":"TH90","p":"สงขลา"},"geometry":{"type":"Polygon","coordinates":[[[100.332,7.0878],[100.349,7.1286],[100.3248,7.1408],[100.3401,7.209],[100.3167,7.2313],[100.3407,7.2482],[100.3397,7.2651],[100.3785,7.3133],[100.3991,7.2636],[100.4086,7.2654],[100.4394,7.2504],[100.4622,7.187],[100.3996,7.0855],[100.332,7.0878]]]}},{"type":"Feature","properties":{"ac":"TH9014","a":"บางกล่ำ","pc":"TH90","p":"สงขลา"},"geometry":{"type":"Polygon","coordinates":[[[100.452,7.0201],[100.3954,6.9925],[100.4014,7.0099],[100.303,7.0394],[100.332,7.0878],[100.3996,7.0855],[100.4622,7.187],[100.4572,7.117],[100.4777,7.0835],[100.4511,7.0599],[100.4356,7.061],[100.4526,7.028],[100.452,7.0201]]]}},{"type":"Feature","properties":{"ac":"TH9015","a":"สิงหนคร","pc":"TH90","p":"สงขลา"},"geometry":{"type":"Polygon","coordinates":[[[100.4394,7.2504],[100.4086,7.2654],[100.4265,7.2895],[100.4202,7.3198],[100.4061,7.3618],[100.4456,7.3726],[100.4477,7.3665],[100.4811,7.3763],[100.5203,7.2961],[100.5754,7.2232],[100.5818,7.1824],[100.5727,7.1688],[100.5579,7.1817],[100.4622,7.187],[100.4394,7.2504]]]}},{"type":"Feature","properties":{"ac":"TH9016","a":"คลองหอยโข่ง","pc":"TH90","p":"สงขลา"},"geometry":{"type":"Polygon","coordinates":[[[100.3549,6.7829],[100.2691,6.781],[100.2195,6.8235],[100.2059,6.8418],[100.2107,6.8461],[100.2476,6.8484],[100.2735,6.886],[100.3427,6.9273],[100.4022,6.9405],[100.4156,6.9342],[100.4408,6.9383],[100.4601,6.8788],[100.4503,6.8356],[100.4324,6.8397],[100.3857,6.8284],[100.3549,6.7829]]]}},{"type":"Feature","properties":{"ac":"TH9101","a":"เมืองสตูล","pc":"TH91","p":"สตูล"},"geometry":{"type":"MultiPolygon","coordinates":[[[[99.2841,6.5084],[99.2929,6.567],[99.3256,6.5514],[99.3134,6.5094],[99.2841,6.5084]]],[[[99.2497,6.5818],[99.2178,6.538],[99.1794,6.5461],[99.1922,6.576],[99.2497,6.5818]]],[[[99.9486,6.5907],[99.9737,6.6292],[99.92,6.6762],[99.9128,6.7241],[99.948,6.7455],[99.9785,6.7534],[100.0069,6.8053],[100.0449,6.7866],[100.0538,6.7538],[100.0784,6.7417],[100.0785,6.7236],[100.1189,6.7221],[100.126,6.6914],[100.1791,6.6831],[100.1676,6.648],[100.183,6.5735],[100.1584,6.5695],[100.158,6.4791],[100.1208,6.4227],[100.0802,6.5575],[100.0644,6.5163],[100.011,6.5575],[99.9896,6.5946],[99.9486,6.5907]]],[[[99.6533,6.5039],[99.5956,6.5981],[99.6147,6.6609],[99.6589,6.721],[99.6842,6.685],[99.6777,6.6307],[99.6979,6.543],[99.6533,6.5039]]]]}},{"type":"Feature","properties":{"ac":"TH9102","a":"ควนโดน","pc":"TH91","p":"สตูล"},"geometry":{"type":"Polygon","coordinates":[[[100.2044,6.7267],[100.1791,6.6831],[100.126,6.6914],[100.1189,6.7221],[100.0785,6.7236],[100.0784,6.7417],[100.0538,6.7538],[100.0449,6.7866],[100.0069,6.8053],[99.9978,6.8206],[100.0807,6.841],[100.1286,6.8166],[100.1916,6.8089],[100.2128,6.7688],[100.2044,6.7267]]]}},{"type":"Feature","properties":{"ac":"TH9103","a":"ควนกาหลง","pc":"TH91","p":"สตูล"},"geometry":{"type":"Polygon","coordinates":[[[100.2107,6.8461],[100.2059,6.8418],[100.1916,6.8089],[100.1286,6.8166],[100.0807,6.841],[99.9978,6.8206],[99.9605,6.8466],[99.9631,6.8654],[99.8831,6.8694],[99.8652,6.9117],[100.0013,6.9486],[99.9816,6.987],[99.9723,7.042],[99.9922,7.0669],[100.0572,7.1076],[100.079,6.9632],[100.1217,6.9239],[100.2072,6.8958],[100.2107,6.8461]]]}},{"type":"Feature","properties":{"ac":"TH9104","a":"ท่าแพ","pc":"TH91","p":"สตูล"},"geometry":{"type":"Polygon","coordinates":[[[99.9978,6.8206],[100.0069,6.8053],[99.9785,6.7534],[99.948,6.7455],[99.9128,6.7241],[99.8776,6.7208],[99.8401,6.779],[99.8371,6.8207],[99.8875,6.8505],[99.8831,6.8694],[99.9631,6.8654],[99.9605,6.8466],[99.9978,6.8206]]]}},{"type":"Feature","properties":{"ac":"TH9105","a":"ละงู","pc":"TH91","p":"สตูล"},"geometry":{"type":"Polygon","coordinates":[[[99.8831,6.8694],[99.8875,6.8505],[99.8371,6.8207],[99.8401,6.779],[99.8068,6.7741],[99.7697,6.841],[99.6972,6.8559],[99.6848,6.9073],[99.688,6.9718],[99.7117,6.9976],[99.7456,6.9572],[99.7919,6.9837],[99.7836,7.0122],[99.8039,7.0046],[99.8743,7.0348],[99.8691,7.0778],[99.8745,7.0794],[99.895,6.9851],[99.8579,6.9224],[99.8831,6.8694]]]}},{"type":"Feature","properties":{"ac":"TH9106","a":"ทุ่งหว้า","pc":"TH91","p":"สตูล"},"geometry":{"type":"Polygon","coordinates":[[[99.6834,7.014],[99.6699,7.0407],[99.7017,7.0665],[99.7343,7.1093],[99.7393,7.1319],[99.8313,7.138],[99.8999,7.1887],[99.9486,7.2037],[99.9581,7.1995],[100.0003,7.1121],[100.0282,7.0903],[99.9922,7.0669],[99.9481,7.1012],[99.8691,7.0778],[99.8743,7.0348],[99.8039,7.0046],[99.7836,7.0122],[99.7919,6.9837],[99.7456,6.9572],[99.7117,6.9976],[99.688,6.9718],[99.6834,7.014]]]}},{"type":"Feature","properties":{"ac":"TH9107","a":"มะนัง","pc":"TH91","p":"สตูล"},"geometry":{"type":"Polygon","coordinates":[[[100.0013,6.9486],[99.8652,6.9117],[99.8604,6.9144],[99.8579,6.9224],[99.895,6.9851],[99.8745,7.0794],[99.9481,7.1012],[99.9922,7.0669],[99.9723,7.042],[99.9816,6.987],[100.0013,6.9486]]]}},{"type":"Feature","properties":{"ac":"TH9301","a":"เมืองพัทลุง","pc":"TH93","p":"พัทลุง"},"geometry":{"type":"Polygon","coordinates":[[[100.0034,7.4531],[100.0309,7.5206],[99.989,7.5299],[99.9924,7.5721],[99.9716,7.5743],[99.9877,7.5877],[99.9872,7.6383],[100.0213,7.6397],[100.0538,7.6563],[100.0527,7.6851],[100.0982,7.7234],[100.1271,7.7334],[100.2184,7.7122],[100.2333,7.5757],[100.1584,7.5762],[100.0855,7.5327],[100.0784,7.5237],[100.0668,7.4884],[100.0122,7.4392],[100.0034,7.4531]]]}},{"type":"Feature","properties":{"ac":"TH9302","a":"กงหรา","pc":"TH93","p":"พัทลุง"},"geometry":{"type":"Polygon","coordinates":[[[99.9951,7.4235],[100.0163,7.3569],[99.9971,7.3288],[99.9399,7.3135],[99.9038,7.3472],[99.8942,7.3979],[99.8649,7.4399],[99.8501,7.4731],[99.9528,7.5092],[99.9651,7.5224],[99.989,7.5299],[100.0309,7.5206],[100.0034,7.4531],[100.0122,7.4392],[99.9951,7.4235]]]}},{"type":"Feature","properties":{"ac":"TH9303","a":"เขาชัยสน","pc":"TH93","p":"พัทลุง"},"geometry":{"type":"Polygon","coordinates":[[[100.1278,7.4108],[100.1087,7.3602],[100.0895,7.3672],[100.0163,7.3569],[99.9951,7.4235],[100.0668,7.4884],[100.0784,7.5237],[100.0855,7.5327],[100.1584,7.5762],[100.2333,7.5757],[100.2384,7.5367],[100.2731,7.4966],[100.2762,7.4784],[100.1698,7.4687],[100.1278,7.4108]]]}},{"type":"Feature","properties":{"ac":"TH9304","a":"ตะโหมด","pc":"TH93","p":"พัทลุง"},"geometry":{"type":"Polygon","coordinates":[[[100.1238,7.2692],[100.0187,7.2088],[99.9581,7.1995],[99.9486,7.2037],[99.9322,7.2467],[99.9399,7.3135],[99.9971,7.3288],[100.0163,7.3569],[100.0731,7.3654],[100.0895,7.3672],[100.1087,7.3602],[100.1348,7.3589],[100.1129,7.2945],[100.1238,7.2692]]]}},{"type":"Feature","properties":{"ac":"TH9305","a":"ควนขนุน","pc":"TH93","p":"พัทลุง"},"geometry":{"type":"Polygon","coordinates":[[[99.9774,7.643],[99.9757,7.662],[99.9382,7.6592],[99.9174,7.7064],[99.9234,7.7153],[99.9306,7.7914],[99.9752,7.7978],[99.9899,7.8308],[99.9851,7.8627],[100.056,7.8381],[100.0796,7.8547],[100.0979,7.8757],[100.1775,7.8765],[100.2184,7.7122],[100.1271,7.7334],[100.0982,7.7234],[100.0527,7.6851],[100.0538,7.6563],[100.0213,7.6397],[99.9872,7.6383],[99.9774,7.643]]]}},{"type":"Feature","properties":{"ac":"TH9306","a":"ปากพะยูน","pc":"TH93","p":"พัทลุง"},"geometry":{"type":"Polygon","coordinates":[[[100.2611,7.243],[100.201,7.2673],[100.257,7.3086],[100.2227,7.3547],[100.1893,7.392],[100.2816,7.4373],[100.2731,7.4966],[100.3557,7.5278],[100.3877,7.4971],[100.3826,7.425],[100.4202,7.3198],[100.4265,7.2895],[100.4086,7.2654],[100.3991,7.2636],[100.3785,7.3133],[100.3397,7.2651],[100.3407,7.2482],[100.3167,7.2313],[100.2611,7.243]]]}},{"type":"Feature","properties":{"ac":"TH9307","a":"ศรีบรรพต","pc":"TH93","p":"พัทลุง"},"geometry":{"type":"Polygon","coordinates":[[[99.9774,7.643],[99.951,7.6469],[99.893,7.6068],[99.8716,7.6262],[99.8007,7.5978],[99.7877,7.6446],[99.8089,7.6448],[99.8111,7.6486],[99.7878,7.7435],[99.8406,7.7472],[99.9002,7.7625],[99.9306,7.7914],[99.9234,7.7153],[99.9174,7.7064],[99.9382,7.6592],[99.9757,7.662],[99.9774,7.643]]]}},{"type":"Feature","properties":{"ac":"TH9308","a":"ป่าบอน","pc":"TH93","p":"พัทลุง"},"geometry":{"type":"Polygon","coordinates":[[[100.1563,7.1487],[100.1143,7.1666],[100.0572,7.1076],[100.0282,7.0903],[100.0003,7.1121],[99.9581,7.1995],[100.0187,7.2088],[100.1238,7.2692],[100.1129,7.2945],[100.1348,7.3589],[100.1965,7.3822],[100.2227,7.3547],[100.257,7.3086],[100.201,7.2673],[100.2611,7.243],[100.3167,7.2313],[100.3046,7.2086],[100.2207,7.1921],[100.1746,7.1748],[100.1563,7.1487]]]}},{"type":"Feature","properties":{"ac":"TH9309","a":"บางแก้ว","pc":"TH93","p":"พัทลุง"},"geometry":{"type":"Polygon","coordinates":[[[100.1965,7.3822],[100.1348,7.3589],[100.1087,7.3602],[100.1278,7.4108],[100.1698,7.4687],[100.2762,7.4784],[100.2816,7.4373],[100.1914,7.3944],[100.1893,7.392],[100.1965,7.3822]]]}},{"type":"Feature","properties":{"ac":"TH9310","a":"ป่าพะยอม","pc":"TH93","p":"พัทลุง"},"geometry":{"type":"Polygon","coordinates":[[[99.9899,7.8308],[99.9752,7.7978],[99.9306,7.7914],[99.9002,7.7625],[99.8406,7.7472],[99.7878,7.7435],[99.7734,7.7656],[99.752,7.8316],[99.7382,7.8589],[99.8084,7.8929],[99.8874,7.8895],[99.9232,7.8649],[99.9624,7.9057],[99.9763,7.8719],[99.9851,7.8627],[99.9899,7.8308]]]}},{"type":"Feature","properties":{"ac":"TH9311","a":"ศรีนครินทร์","pc":"TH93","p":"พัทลุง"},"geometry":{"type":"Polygon","coordinates":[[[99.8501,7.4731],[99.8335,7.5033],[99.8206,7.5189],[99.8373,7.5413],[99.8007,7.5978],[99.8716,7.6262],[99.893,7.6068],[99.951,7.6469],[99.9774,7.643],[99.9872,7.6383],[99.9877,7.5877],[99.9716,7.5743],[99.9924,7.5721],[99.989,7.5299],[99.9651,7.5224],[99.9528,7.5092],[99.8501,7.4731]]]}},{"type":"Feature","properties":{"ac":"TH9401","a":"เมืองปัตตานี","pc":"TH94","p":"ปัตตานี"},"geometry":{"type":"Polygon","coordinates":[[[101.2127,6.8208],[101.2272,6.854],[101.2044,6.8573],[101.1925,6.8661],[101.2483,6.8988],[101.2994,6.8813],[101.3242,6.8767],[101.3215,6.8434],[101.3014,6.8341],[101.293,6.8335],[101.286,6.8091],[101.2525,6.8029],[101.2449,6.8198],[101.2127,6.8208]]]}},{"type":"Feature","properties":{"ac":"TH9402","a":"โคกโพธิ์","pc":"TH94","p":"ปัตตานี"},"geometry":{"type":"Polygon","coordinates":[[[101.0622,6.6554],[101.057,6.6775],[101.0606,6.7057],[101.0176,6.7249],[101.0286,6.7786],[101.0544,6.8015],[101.1907,6.7557],[101.202,6.7273],[101.2082,6.7233],[101.1843,6.662],[101.2065,6.651],[101.199,6.644],[101.224,6.6063],[101.1892,6.5987],[101.1283,6.612],[101.1135,6.6269],[101.1036,6.628],[101.0622,6.6554]]]}},{"type":"Feature","properties":{"ac":"TH9403","a":"หนองจิก","pc":"TH94","p":"ปัตตานี"},"geometry":{"type":"Polygon","coordinates":[[[101.1907,6.7557],[101.0544,6.8015],[101.0661,6.8571],[101.1389,6.8596],[101.1925,6.8661],[101.2044,6.8573],[101.2272,6.854],[101.2127,6.8208],[101.2449,6.8198],[101.2551,6.7974],[101.2711,6.7837],[101.2659,6.7746],[101.2386,6.7631],[101.2518,6.7392],[101.2665,6.6952],[101.2295,6.7076],[101.202,6.7273],[101.1907,6.7557]]]}},{"type":"Feature","properties":{"ac":"TH9404","a":"ปะนาเระ","pc":"TH94","p":"ปัตตานี"},"geometry":{"type":"Polygon","coordinates":[[[101.5012,6.7339],[101.4614,6.7738],[101.4661,6.7759],[101.469,6.7989],[101.4508,6.825],[101.4819,6.851],[101.4541,6.8638],[101.4566,6.8828],[101.5111,6.8642],[101.5448,6.846],[101.5953,6.7817],[101.5641,6.7689],[101.5358,6.768],[101.5152,6.7428],[101.5012,6.7339]]]}},{"type":"Feature","properties":{"ac":"TH9405","a":"มายอ","pc":"TH94","p":"ปัตตานี"},"geometry":{"type":"Polygon","coordinates":[[[101.3255,6.7062],[101.3203,6.7245],[101.3379,6.7411],[101.3341,6.7703],[101.3574,6.7674],[101.3703,6.7622],[101.4086,6.7605],[101.4171,6.7788],[101.4614,6.7738],[101.5012,6.7339],[101.4867,6.7126],[101.4395,6.7083],[101.4297,6.6429],[101.3726,6.5994],[101.3596,6.6478],[101.3255,6.7062]]]}},{"type":"Feature","properties":{"ac":"TH9406","a":"ทุ่งยางแดง","pc":"TH94","p":"ปัตตานี"},"geometry":{"type":"Polygon","coordinates":[[[101.3824,6.5696],[101.3726,6.5994],[101.4297,6.6429],[101.4395,6.7083],[101.4867,6.7126],[101.5158,6.6986],[101.5107,6.6759],[101.4856,6.6664],[101.5024,6.6037],[101.4701,6.596],[101.4273,6.5939],[101.3824,6.5696]]]}},{"type":"Feature","properties":{"ac":"TH9407","a":"สายบุรี","pc":"TH94","p":"ปัตตานี"},"geometry":{"type":"Polygon","coordinates":[[[101.5614,6.6287],[101.5498,6.6647],[101.5107,6.6759],[101.5158,6.6986],[101.4867,6.7126],[101.5012,6.7339],[101.5152,6.7428],[101.5358,6.768],[101.5641,6.7689],[101.5953,6.7817],[101.6126,6.7521],[101.6398,6.7161],[101.6638,6.6715],[101.6407,6.6738],[101.6386,6.6447],[101.6314,6.6351],[101.6148,6.6296],[101.5867,6.6264],[101.576,6.6412],[101.5614,6.6287]]]}},{"type":"Feature","properties":{"ac":"TH9408","a":"ไม้แก่น","pc":"TH94","p":"ปัตตานี"},"geometry":{"type":"Polygon","coordinates":[[[101.6751,6.573],[101.6347,6.6208],[101.6314,6.6351],[101.6386,6.6447],[101.6407,6.6738],[101.6638,6.6715],[101.7248,6.5769],[101.7093,6.5689],[101.6751,6.573]]]}},{"type":"Feature","properties":{"ac":"TH9409","a":"ยะหริ่ง","pc":"TH94","p":"ปัตตานี"},"geometry":{"type":"Polygon","coordinates":[[[101.3574,6.7674],[101.3341,6.7703],[101.3356,6.8036],[101.3215,6.8434],[101.3242,6.8767],[101.3428,6.8854],[101.345,6.8968],[101.3241,6.9281],[101.3581,6.9038],[101.4566,6.8828],[101.4541,6.8638],[101.4819,6.851],[101.4508,6.825],[101.469,6.7989],[101.4661,6.7759],[101.4614,6.7738],[101.4171,6.7788],[101.4086,6.7605],[101.3703,6.7622],[101.3574,6.7674]]]}},{"type":"Feature","properties":{"ac":"TH9410","a":"ยะรัง","pc":"TH94","p":"ปัตตานี"},"geometry":{"type":"Polygon","coordinates":[[[101.2804,6.6819],[101.2867,6.7122],[101.2665,6.6952],[101.2518,6.7392],[101.2386,6.7631],[101.2659,6.7746],[101.2711,6.7837],[101.2525,6.8029],[101.286,6.8091],[101.293,6.8335],[101.3014,6.8341],[101.3215,6.8434],[101.3356,6.8036],[101.3341,6.7703],[101.3379,6.7411],[101.3203,6.7245],[101.3255,6.7062],[101.3596,6.6478],[101.3824,6.5696],[101.3549,6.5572],[101.3021,6.5687],[101.2935,6.6166],[101.3034,6.6212],[101.2804,6.6819]]]}},{"type":"Feature","properties":{"ac":"TH9411","a":"กะพ้อ","pc":"TH94","p":"ปัตตานี"},"geometry":{"type":"Polygon","coordinates":[[[101.5924,6.5656],[101.5368,6.556],[101.5221,6.5836],[101.507,6.603],[101.5024,6.6037],[101.4856,6.6664],[101.5107,6.6759],[101.5498,6.6647],[101.5614,6.6287],[101.576,6.6412],[101.5867,6.6264],[101.5967,6.578],[101.5924,6.5656]]]}},{"type":"Feature","properties":{"ac":"TH9412","a":"แม่ลาน","pc":"TH94","p":"ปัตตานี"},"geometry":{"type":"Polygon","coordinates":[[[101.2367,6.6274],[101.224,6.6063],[101.199,6.644],[101.2065,6.651],[101.1843,6.662],[101.2082,6.7233],[101.2295,6.7076],[101.2665,6.6952],[101.2867,6.7122],[101.2701,6.6456],[101.2367,6.6274]]]}},{"type":"Feature","properties":{"ac":"TH9501","a":"เมืองยะลา","pc":"TH95","p":"ยะลา"},"geometry":{"type":"Polygon","coordinates":[[[101.2216,6.4836],[101.1939,6.5049],[101.1742,6.5086],[101.1669,6.5399],[101.1545,6.5483],[101.0895,6.6091],[101.1036,6.628],[101.1135,6.6269],[101.1283,6.612],[101.1892,6.5987],[101.224,6.6063],[101.2367,6.6274],[101.2701,6.6456],[101.2804,6.6819],[101.3034,6.6212],[101.2935,6.6166],[101.3021,6.5687],[101.3549,6.5572],[101.3322,6.5387],[101.3246,6.5005],[101.3323,6.462],[101.3255,6.4509],[101.3039,6.4465],[101.2791,6.4701],[101.2489,6.4541],[101.2321,6.4879],[101.2216,6.4836]]]}},{"type":"Feature","properties":{"ac":"TH9502","a":"เบตง","pc":"TH95","p":"ยะลา"},"geometry":{"type":"Polygon","coordinates":[[[101.2636,5.8009],[101.2598,5.7122],[101.2142,5.6614],[101.1356,5.613],[101.097,5.6928],[101.0604,5.7439],[101.034,5.7381],[100.9833,5.8083],[101.0118,5.838],[101.0378,5.9178],[101.0865,5.9116],[101.1239,5.9771],[101.1063,5.9988],[101.1646,6.0133],[101.2518,5.999],[101.2664,5.9172],[101.2864,5.8944],[101.3257,5.9355],[101.3281,6.0116],[101.4062,6.0578],[101.4779,6.0435],[101.4757,5.9883],[101.5022,5.8897],[101.4849,5.8703],[101.3915,5.8759],[101.3455,5.8091],[101.2948,5.8123],[101.2636,5.8009]]]}},{"type":"Feature","properties":{"ac":"TH9503","a":"บันนังสตา","pc":"TH95","p":"ยะลา"},"geometry":{"type":"Polygon","coordinates":[[[101.3282,6.1583],[101.2624,6.1304],[101.2657,6.2156],[101.1968,6.2048],[101.1185,6.1864],[101.1015,6.2554],[101.182,6.2847],[101.2262,6.3409],[101.2881,6.2997],[101.289,6.3136],[101.2738,6.361],[101.2759,6.376],[101.3256,6.3917],[101.3478,6.377],[101.3759,6.3444],[101.3878,6.3356],[101.394,6.2986],[101.3984,6.2314],[101.3786,6.2144],[101.3939,6.1599],[101.3282,6.1583]]]}},{"type":"Feature","properties":{"ac":"TH9504","a":"ธารโต","pc":"TH95","p":"ยะลา"},"geometry":{"type":"Polygon","coordinates":[[[101.4062,6.0578],[101.3281,6.0116],[101.3257,5.9355],[101.2864,5.8944],[101.2664,5.9172],[101.2518,5.999],[101.1646,6.0133],[101.1063,5.9988],[101.1095,6.0652],[101.127,6.1044],[101.0584,6.1431],[101.1185,6.1864],[101.1968,6.2048],[101.2657,6.2156],[101.2624,6.1304],[101.3282,6.1583],[101.3939,6.1599],[101.4097,6.1572],[101.4465,6.0821],[101.4706,6.0739],[101.4779,6.0435],[101.4062,6.0578]]]}},{"type":"Feature","properties":{"ac":"TH9505","a":"ยะหา","pc":"TH95","p":"ยะลา"},"geometry":{"type":"Polygon","coordinates":[[[101.182,6.2847],[101.1015,6.2554],[101.0126,6.2487],[100.969,6.283],[100.9799,6.3045],[101.0783,6.3487],[101.0763,6.3801],[101.0792,6.3986],[101.0525,6.4581],[101.0347,6.4857],[101.0638,6.5426],[101.0902,6.6082],[101.1669,6.5399],[101.1742,6.5086],[101.1939,6.5049],[101.2216,6.4836],[101.2143,6.4548],[101.1972,6.4318],[101.21,6.3681],[101.2262,6.3409],[101.182,6.2847]]]}},{"type":"Feature","properties":{"ac":"TH9506","a":"รามัน","pc":"TH95","p":"ยะลา"},"geometry":{"type":"Polygon","coordinates":[[[101.3478,6.377],[101.3256,6.3917],[101.3039,6.4465],[101.3255,6.4509],[101.3323,6.462],[101.3246,6.5005],[101.3322,6.5387],[101.3549,6.5572],[101.4273,6.5939],[101.4701,6.596],[101.5024,6.6037],[101.507,6.603],[101.5221,6.5836],[101.5368,6.556],[101.5924,6.5656],[101.5976,6.5539],[101.5908,6.5121],[101.5847,6.5124],[101.5076,6.4513],[101.463,6.4658],[101.4698,6.4289],[101.4198,6.4029],[101.3878,6.3356],[101.3759,6.3444],[101.3478,6.377]]]}},{"type":"Feature","properties":{"ac":"TH9507","a":"กาบัง","pc":"TH95","p":"ยะลา"},"geometry":{"type":"Polygon","coordinates":[[[101.0763,6.3801],[101.0783,6.3487],[100.9799,6.3045],[100.9438,6.2433],[100.9021,6.2336],[100.8721,6.2645],[100.855,6.2316],[100.841,6.3004],[100.9121,6.3034],[100.9288,6.3309],[100.9243,6.4275],[100.9758,6.4804],[101.0347,6.4857],[101.0525,6.4581],[101.0792,6.3986],[101.0763,6.3801]]]}},{"type":"Feature","properties":{"ac":"TH9508","a":"กรงปินัง","pc":"TH95","p":"ยะลา"},"geometry":{"type":"Polygon","coordinates":[[[101.2881,6.2997],[101.2262,6.3409],[101.21,6.3681],[101.1972,6.4318],[101.2143,6.4548],[101.2216,6.4836],[101.2321,6.4879],[101.2489,6.4541],[101.2791,6.4701],[101.3039,6.4465],[101.3256,6.3917],[101.2759,6.376],[101.2738,6.361],[101.289,6.3136],[101.2881,6.2997]]]}},{"type":"Feature","properties":{"ac":"TH8001","a":"เมืองนครศรีธรรมร","pc":"TH80","p":"นครศรีธรรมราช"},"geometry":{"type":"Polygon","coordinates":[[[99.8458,8.3677],[99.8491,8.4199],[99.7982,8.4697],[99.8495,8.4909],[99.9291,8.5084],[99.9467,8.5078],[99.9263,8.5434],[99.9442,8.5994],[99.9781,8.5869],[100.0174,8.5585],[100.0517,8.4974],[100.0823,8.4212],[100.089,8.4145],[100.0655,8.3349],[100.0536,8.3361],[100.0191,8.2481],[100.0027,8.2535],[99.9696,8.3916],[99.931,8.3961],[99.8684,8.3714],[99.8458,8.3677]]]}},{"type":"Feature","properties":{"ac":"TH8002","a":"พรหมคีรี","pc":"TH80","p":"นครศรีธรรมราช"},"geometry":{"type":"Polygon","coordinates":[[[99.7898,8.4699],[99.7335,8.4942],[99.7449,8.5052],[99.7398,8.5334],[99.717,8.5479],[99.7096,8.5974],[99.7165,8.6151],[99.8143,8.6232],[99.8313,8.6201],[99.8361,8.5992],[99.8334,8.5779],[99.8504,8.5562],[99.9263,8.5434],[99.9467,8.5078],[99.9291,8.5084],[99.8495,8.4909],[99.7982,8.4697],[99.7898,8.4699]]]}},{"type":"Feature","properties":{"ac":"TH8003","a":"ลานสกา","pc":"TH80","p":"นครศรีธรรมราช"},"geometry":{"type":"Polygon","coordinates":[[[99.7207,8.3015],[99.6965,8.4552],[99.7019,8.4832],[99.7335,8.4942],[99.7898,8.4699],[99.7982,8.4697],[99.8491,8.4199],[99.8458,8.3677],[99.8684,8.3714],[99.8942,8.3458],[99.8601,8.3062],[99.8269,8.3012],[99.7573,8.2596],[99.7207,8.3015]]]}},{"type":"Feature","properties":{"ac":"TH8004","a":"ฉวาง","pc":"TH80","p":"นครศรีธรรมราช"},"geometry":{"type":"Polygon","coordinates":[[[99.5896,8.3713],[99.5745,8.3776],[99.5253,8.3787],[99.5194,8.348],[99.4802,8.3647],[99.477,8.3924],[99.4204,8.4121],[99.43,8.4282],[99.4546,8.4476],[99.4441,8.4908],[99.428,8.5379],[99.4178,8.5522],[99.4194,8.5705],[99.4785,8.6467],[99.5191,8.5474],[99.5255,8.5001],[99.5563,8.5044],[99.5734,8.4978],[99.5871,8.4841],[99.6418,8.5188],[99.7019,8.4832],[99.695,8.4431],[99.5849,8.421],[99.5896,8.3713]]]}},{"type":"Feature","properties":{"ac":"TH8005","a":"พิปูน","pc":"TH80","p":"นครศรีธรรมราช"},"geometry":{"type":"Polygon","coordinates":[[[99.7449,8.5052],[99.7335,8.4942],[99.7019,8.4832],[99.6418,8.5188],[99.5871,8.4841],[99.5734,8.4978],[99.5563,8.5044],[99.5255,8.5001],[99.5191,8.5474],[99.4785,8.6467],[99.492,8.6969],[99.5219,8.7193],[99.5439,8.7195],[99.6705,8.6783],[99.6694,8.65],[99.7096,8.5974],[99.717,8.5479],[99.7398,8.5334],[99.7449,8.5052]]]}},{"type":"Feature","properties":{"ac":"TH8006","a":"เชียรใหญ่","pc":"TH80","p":"นครศรีธรรมราช"},"geometry":{"type":"Polygon","coordinates":[[[100.1939,8.0101],[100.1744,8.011],[100.0846,8.031],[100.0528,8.0531],[100.0777,8.1102],[100.1072,8.1196],[100.0818,8.1479],[100.1245,8.1797],[100.0775,8.2253],[100.117,8.2144],[100.127,8.207],[100.1758,8.2291],[100.1899,8.2236],[100.2326,8.1978],[100.2578,8.1778],[100.2187,8.1241],[100.2183,8.1132],[100.2241,8.1036],[100.1939,8.0101]]]}},{"type":"Feature","properties":{"ac":"TH8007","a":"ชะอวด","pc":"TH80","p":"นครศรีธรรมราช"},"geometry":{"type":"Polygon","coordinates":[[[99.9232,7.8649],[99.8874,7.8895],[99.8084,7.8929],[99.7382,7.8589],[99.7977,7.9093],[99.8291,7.9694],[99.7929,7.999],[99.7889,8.0132],[99.8896,8.0272],[99.9385,8.0291],[99.9381,8.0355],[99.9611,8.0829],[100.0277,8.1264],[100.0528,8.0531],[100.0631,8.0446],[100.0846,8.031],[100.1744,8.011],[100.1494,7.9925],[100.1441,7.9282],[100.1775,7.8765],[100.0979,7.8757],[100.0796,7.8547],[100.056,7.8381],[99.9851,7.8627],[99.9763,7.8719],[99.9624,7.9057],[99.9232,7.8649]]]}},{"type":"Feature","properties":{"ac":"TH8008","a":"ท่าศาลา","pc":"TH80","p":"นครศรีธรรมราช"},"geometry":{"type":"Polygon","coordinates":[[[99.8504,8.5562],[99.8334,8.5779],[99.8361,8.5992],[99.8313,8.6201],[99.8612,8.6313],[99.8527,8.6877],[99.8287,8.7232],[99.8198,8.7063],[99.7958,8.7145],[99.8073,8.7306],[99.7582,8.8116],[99.8613,8.8195],[99.9208,8.8703],[99.9333,8.7968],[99.9522,8.6331],[99.9781,8.5869],[99.9442,8.5994],[99.9263,8.5434],[99.8504,8.5562]]]}},{"type":"Feature","properties":{"ac":"TH8009","a":"ทุ่งสง","pc":"TH80","p":"นครศรีธรรมราช"},"geometry":{"type":"Polygon","coordinates":[[[99.6028,7.9834],[99.543,8.0602],[99.5221,8.1237],[99.4751,8.1431],[99.4335,8.1229],[99.4466,8.1877],[99.4727,8.1974],[99.4966,8.218],[99.5283,8.2309],[99.5399,8.2445],[99.5795,8.2421],[99.6026,8.2062],[99.659,8.2198],[99.6813,8.2404],[99.6746,8.2901],[99.7207,8.3015],[99.7573,8.2596],[99.756,8.249],[99.7924,8.2341],[99.8013,8.2003],[99.7712,8.1131],[99.7712,8.0684],[99.7929,7.999],[99.8291,7.9694],[99.7977,7.9093],[99.7379,7.8609],[99.7404,7.9266],[99.7305,7.9529],[99.7531,8.0078],[99.7132,7.9902],[99.6547,8.0114],[99.6157,7.9877],[99.6028,7.9834]]]}},{"type":"Feature","properties":{"ac":"TH8010","a":"นาบอน","pc":"TH80","p":"นครศรีธรรมราช"},"geometry":{"type":"Polygon","coordinates":[[[99.6813,8.2404],[99.659,8.2198],[99.6026,8.2062],[99.5795,8.2421],[99.5399,8.2445],[99.5283,8.2309],[99.4966,8.218],[99.4727,8.1974],[99.4647,8.2158],[99.4866,8.3475],[99.4802,8.3647],[99.5194,8.348],[99.5214,8.3393],[99.5722,8.2927],[99.6329,8.2711],[99.6746,8.2901],[99.6813,8.2404]]]}},{"type":"Feature","properties":{"ac":"TH8011","a":"ทุ่งใหญ่","pc":"TH80","p":"นครศรีธรรมราช"},"geometry":{"type":"Polygon","coordinates":[[[99.4466,8.1877],[99.4335,8.1229],[99.3917,8.1099],[99.368,8.1377],[99.2964,8.1321],[99.2895,8.1644],[99.3222,8.2076],[99.3133,8.2384],[99.3336,8.2616],[99.2904,8.3126],[99.2345,8.3858],[99.2934,8.4707],[99.3227,8.4184],[99.3221,8.4116],[99.3739,8.3893],[99.4204,8.4121],[99.477,8.3924],[99.4802,8.3647],[99.4866,8.3475],[99.4647,8.2158],[99.4727,8.1974],[99.4466,8.1877]]]}},{"type":"Feature","properties":{"ac":"TH8012","a":"ปากพนัง","pc":"TH80","p":"นครศรีธรรมราช"},"geometry":{"type":"Polygon","coordinates":[[[100.0775,8.2253],[100.0721,8.2341],[100.0571,8.2187],[100.0191,8.2481],[100.0536,8.3361],[100.0655,8.3349],[100.089,8.4145],[100.1384,8.3883],[100.166,8.3873],[100.1473,8.443],[100.168,8.5038],[100.2186,8.4326],[100.2614,8.3104],[100.2951,8.1713],[100.2593,8.1731],[100.2578,8.1778],[100.2326,8.1978],[100.1899,8.2236],[100.1758,8.2291],[100.127,8.207],[100.117,8.2144],[100.0775,8.2253]]]}},{"type":"Feature","properties":{"ac":"TH8013","a":"ร่อนพิบูลย์","pc":"TH80","p":"นครศรีธรรมราช"},"geometry":{"type":"Polygon","coordinates":[[[99.8915,8.1097],[99.8621,8.1502],[99.8099,8.1376],[99.7712,8.0684],[99.7712,8.1131],[99.8013,8.2003],[99.7924,8.2341],[99.756,8.249],[99.7573,8.2596],[99.8269,8.3012],[99.8601,8.3062],[99.8645,8.298],[99.9428,8.2683],[99.9428,8.2323],[99.9928,8.2388],[100.0159,8.1844],[100.0277,8.1264],[99.9611,8.0829],[99.9355,8.1269],[99.9171,8.1132],[99.8915,8.1097]]]}},{"type":"Feature","properties":{"ac":"TH8014","a":"สิชล","pc":"TH80","p":"นครศรีธรรมราช"},"geometry":{"type":"Polygon","coordinates":[[[99.7582,8.8116],[99.6817,8.8551],[99.685,8.8738],[99.6419,8.9278],[99.6964,8.9358],[99.7224,8.9773],[99.7718,9.0964],[99.8083,9.0818],[99.8327,9.1241],[99.8617,9.0893],[99.9094,9.0899],[99.9172,9.0156],[99.9141,8.9728],[99.9156,8.9108],[99.9208,8.8703],[99.8613,8.8195],[99.7582,8.8116]]]}},{"type":"Feature","properties":{"ac":"TH8015","a":"ขนอม","pc":"TH80","p":"นครศรีธรรมราช"},"geometry":{"type":"Polygon","coordinates":[[[99.8617,9.0893],[99.8327,9.1241],[99.8083,9.0818],[99.7718,9.0964],[99.7221,9.1568],[99.7716,9.2609],[99.7691,9.3228],[99.8435,9.2936],[99.8656,9.2359],[99.8756,9.1407],[99.9094,9.0899],[99.8617,9.0893]]]}},{"type":"Feature","properties":{"ac":"TH8016","a":"หัวไทร","pc":"TH80","p":"นครศรีธรรมราช"},"geometry":{"type":"Polygon","coordinates":[[[100.2606,7.9027],[100.2355,7.883],[100.1775,7.8765],[100.1441,7.9282],[100.1494,7.9925],[100.1744,8.011],[100.1939,8.0101],[100.2241,8.1036],[100.2183,8.1132],[100.2187,8.1241],[100.2578,8.1778],[100.2593,8.1731],[100.2951,8.1713],[100.3366,7.9318],[100.3213,7.9368],[100.2887,7.9149],[100.266,7.9147],[100.2606,7.9027]]]}},{"type":"Feature","properties":{"ac":"TH8017","a":"บางขัน","pc":"TH80","p":"นครศรีธรรมราช"},"geometry":{"type":"Polygon","coordinates":[[[99.4722,7.9042],[99.436,7.8747],[99.4199,7.9205],[99.3652,7.945],[99.3698,7.9466],[99.4149,7.9997],[99.3874,8.0631],[99.3917,8.1099],[99.4335,8.1229],[99.4751,8.1431],[99.5221,8.1237],[99.543,8.0602],[99.6028,7.9834],[99.5626,7.9251],[99.542,7.909],[99.5337,7.8779],[99.4722,7.9042]]]}},{"type":"Feature","properties":{"ac":"TH8018","a":"ถ้ำพรรณรา","pc":"TH80","p":"นครศรีธรรมราช"},"geometry":{"type":"Polygon","coordinates":[[[99.4204,8.4121],[99.3739,8.3893],[99.3221,8.4116],[99.3227,8.4184],[99.2934,8.4707],[99.378,8.5162],[99.3869,8.5154],[99.4178,8.5522],[99.428,8.5379],[99.4441,8.4908],[99.4546,8.4476],[99.43,8.4282],[99.4204,8.4121]]]}},{"type":"Feature","properties":{"ac":"TH8019","a":"จุฬาภรณ์","pc":"TH80","p":"นครศรีธรรมราช"},"geometry":{"type":"Polygon","coordinates":[[[99.8896,8.0272],[99.7889,8.0132],[99.7712,8.0684],[99.8099,8.1376],[99.8621,8.1502],[99.8915,8.1097],[99.9171,8.1132],[99.9355,8.1269],[99.9611,8.0829],[99.9381,8.0355],[99.9385,8.0291],[99.8896,8.0272]]]}},{"type":"Feature","properties":{"ac":"TH8020","a":"พระพรหม","pc":"TH80","p":"นครศรีธรรมราช"},"geometry":{"type":"Polygon","coordinates":[[[99.8601,8.3062],[99.8942,8.3458],[99.8684,8.3714],[99.931,8.3961],[99.9696,8.3916],[100.0027,8.2535],[99.9421,8.2667],[99.8645,8.298],[99.8601,8.3062]]]}},{"type":"Feature","properties":{"ac":"TH8021","a":"นบพิตำ","pc":"TH80","p":"นครศรีธรรมราช"},"geometry":{"type":"Polygon","coordinates":[[[99.8287,8.7232],[99.8527,8.6877],[99.8612,8.6313],[99.8313,8.6201],[99.8143,8.6232],[99.7165,8.6151],[99.7096,8.5974],[99.6694,8.65],[99.6705,8.6783],[99.5439,8.7195],[99.5219,8.7193],[99.5176,8.8361],[99.5558,8.8777],[99.5686,8.8871],[99.5762,8.9111],[99.6419,8.9278],[99.685,8.8738],[99.6817,8.8551],[99.7582,8.8116],[99.8073,8.7306],[99.7958,8.7145],[99.8198,8.7063],[99.8287,8.7232]]]}},{"type":"Feature","properties":{"ac":"TH8022","a":"ช้างกลาง","pc":"TH80","p":"นครศรีธรรมราช"},"geometry":{"type":"Polygon","coordinates":[[[99.5214,8.3393],[99.5194,8.348],[99.5253,8.3787],[99.5745,8.3776],[99.5896,8.3713],[99.5849,8.421],[99.695,8.4431],[99.6965,8.4552],[99.7207,8.3015],[99.6746,8.2901],[99.6329,8.2711],[99.5722,8.2927],[99.5214,8.3393]]]}},{"type":"Feature","properties":{"ac":"TH8023","a":"เฉลิมพระเกียรติ","pc":"TH80","p":"นครศรีธรรมราช"},"geometry":{"type":"Polygon","coordinates":[[[100.0777,8.1102],[100.0528,8.0531],[100.0277,8.1264],[100.0159,8.1844],[99.9928,8.2388],[99.9428,8.2323],[99.9421,8.2667],[100.0191,8.2481],[100.0571,8.2187],[100.0721,8.2341],[100.0775,8.2253],[100.1245,8.1797],[100.0818,8.1479],[100.1072,8.1196],[100.0777,8.1102]]]}}]}